SatCatId,ObjectName,LaunchYear,OrbitalPeriod,LaunchMass,StatusCode,Inclination,Status,UcsData,OrbitClassEstimated,LaunchSiteCountry,Owner,UseType,Purpose,LaunchVehicleClass,TLE1,TLE2,MeanMotion,Eccentricity,OrbitClass
48075,ONEWEB-0178,2021,109.63,148.0,+,87.91,Active,1,LEO,Russia,UK,Commercial,Communications,Soyuz,1 48075U 21025AK  23276.62494403 -.00000262  00000+0 -75320-3 0  9997,2 48075  87.9050 156.7259 0001490  70.9181 289.2110 13.13470211124081,13.13470211,0.000149,LEO
48076,ONEWEB-0108,2021,109.63,148.0,+,87.91,Active,1,LEO,Russia,UK,Commercial,Communications,Soyuz,1 48076U 21025AL  23276.58579103  .00000252  00000+0  65641-3 0  9996,2 48076  87.9055 156.7276 0001841  83.8090 276.3249 13.13469262124004,13.13469262,0.0001841,LEO
48077,ONEWEB-0169,2021,109.63,148.0,+,87.91,Active,1,LEO,Russia,UK,Commercial,Communications,Soyuz,1 48077U 21025AM  23276.61541456 -.00000249  00000+0 -71747-3 0  9993,2 48077  87.9060 156.7235 0001788  88.7442 271.3892 13.13468973122668,13.13468973,0.0001788,LEO
48079,GAOFEN-12 02,2021,97.25,3000.0,+,97.93,Active,1,LEO,PRC,China,Government,Earth Observation,Long March,1 48079U 21026A   23276.55392757  .00001067  00000+0  14536-3 0  9997,2 48079  97.9327 265.6780 0001233  79.4963 280.6388 14.80750642135627,14.80750642,0.0001233,LEO
48082,FEES,2021,93.64,-1.0,+,97.48,Active,0,LEO,Kazakhstan,Italy,Unknown,Unknown,Soyuz,1 48082U 21022AL  23276.51030326  .00089942  00000+0  23915-2 0  9992,2 48082  97.4808 179.8147 0004062 296.5292  63.5536 15.37885800138447,15.378858,0.0004062,LEO
48083,BEESAT-5,2021,94.34,1.0,+,97.47,Active,1,LEO,Kazakhstan,Germany,Civil,Technology Development,Soyuz,1 48083U 21022AM  23276.15689194  .00044298  00000+0  16957-2 0  9999,2 48083  97.4670 174.7728 0011677 321.0229  39.0166 15.26356976138529,15.26356976,0.0011677,LEO
48084,BEESAT-7,2021,94.43,1.0,+,97.48,Active,1,LEO,Kazakhstan,Germany,Civil,Technology Development,Soyuz,1 48084U 21022AN  23276.52433712  .00041056  00000+0  16334-2 0  9992,2 48084  97.4779 175.0088 0012111 319.9771  40.0573 15.25083620138149,15.2508362,0.0012111,LEO
48085,BEESAT-8,2021,94.81,1.0,+,97.49,Active,1,LEO,Kazakhstan,Germany,Civil,Technology Development,Soyuz,1 48085U 21022AP  23276.52531646  .00019389  00000+0  93083-3 0  9999,2 48085  97.4849 173.8175 0015019 322.7996  37.2197 15.18801460138616,15.1880146,0.0015019,LEO
48092,STARLINK-2048,2021,95.59,260.0,+,53.05,Active,1,LEO,USA,USA,Commercial,Communications,Falcon,1 48092U 21027A   23276.00385092  .00025864  00000+0  17491-2 0  9990,2 48092  53.0525 126.3645 0001288  86.2506 273.8630 15.06395209139516,15.06395209,0.0001288,LEO
48093,STARLINK-2404,2021,95.59,260.0,+,53.05,Active,1,LEO,USA,USA,Commercial,Communications,Falcon,1 48093U 21027B   23276.49730289  .00046072  00000+0  30910-2 0  9991,2 48093  53.0541 189.0727 0001785 105.7467 254.3719 15.06408746138283,15.06408746,0.0001785,LEO
48094,STARLINK-2412,2021,95.59,260.0,+,53.05,Active,1,LEO,USA,USA,Commercial,Communications,Falcon,1 48094U 21027C   23276.51477512  .00008503  00000+0  58906-3 0  9995,2 48094  53.0540 198.7908 0001421  98.1082 262.0068 15.06398509138150,15.06398509,0.0001421,LEO
48095,STARLINK-2414,2021,95.59,260.0,+,53.05,Active,1,LEO,USA,USA,Commercial,Communications,Falcon,1 48095U 21027D   23276.52213191  .00035221  00000+0  23693-2 0  9999,2 48095  53.0527 198.7558 0001508  87.9624 272.1537 15.06436029138569,15.06436029,0.0001508,LEO
48096,STARLINK-2417,2021,95.59,260.0,+,53.05,Active,1,LEO,USA,USA,Commercial,Communications,Falcon,1 48096U 21027E   23276.49634240  .00041127  00000+0  27639-2 0  9994,2 48096  53.0531 198.8738 0001291  92.6739 267.4398 15.06399390138544,15.0639939,0.0001291,LEO
48097,STARLINK-2418,2021,95.59,260.0,+,53.05,Active,1,LEO,USA,USA,Commercial,Communications,Falcon,1 48097U 21027F   23276.21068711  .00038668  00000+0  26011-2 0  9998,2 48097  53.0530 180.1584 0001325  88.1239 271.9901 15.06393279138786,15.06393279,0.0001325,LEO
48098,STARLINK-2421,2021,95.59,260.0,+,53.05,Active,1,LEO,USA,USA,Commercial,Communications,Falcon,1 48098U 21027G   23276.45302838  .00018200  00000+0  12376-2 0  9995,2 48098  53.0538 189.0690 0001490  83.9860 276.1298 15.06398449138675,15.06398449,0.000149,LEO
48099,STARLINK-2428,2021,95.59,260.0,+,53.05,Active,1,LEO,USA,USA,Commercial,Communications,Falcon,1 48099U 21027H   23276.50740702  .00040219  00000+0  27030-2 0  9996,2 48099  53.0525 198.8258 0001715 103.1806 256.9374 15.06408339138542,15.06408339,0.0001715,LEO
48100,STARLINK-2430,2021,95.59,260.0,+,53.05,Active,1,LEO,USA,USA,Commercial,Communications,Falcon,1 48100U 21027J   23276.46870419  .00037559  00000+0  25270-2 0  9990,2 48100  53.0529 178.9993 0001629 118.2123 241.9031 15.06399226138422,15.06399226,0.0001629,LEO
48101,STARLINK-2436,2021,95.59,260.0,+,53.05,Active,1,LEO,USA,USA,Commercial,Communications,Falcon,1 48101U 21027K   23276.47149171  .00040029  00000+0  26911-2 0  9995,2 48101  53.0528 189.1901 0001352 100.0784 260.0358 15.06398011138683,15.06398011,0.0001352,LEO
48102,STARLINK-2437,2021,95.59,260.0,+,53.05,Active,1,LEO,USA,USA,Commercial,Communications,Falcon,1 48102U 21027L   23276.42815575  .00041075  00000+0  27601-2 0  9998,2 48102  53.0534 179.1812 0001552 101.3837 258.7326 15.06403580138818,15.0640358,0.0001552,LEO
48103,STARLINK-2438,2021,94.45,260.0,P,53.06,Active,1,LEO,USA,USA,Commercial,Communications,Falcon,1 48103U 21027M   23276.41480672  .00046755  00000+0  18723-2 0  9999,2 48103  53.0569 164.3604 0002186 149.7829 210.3294 15.24617646139025,15.24617646,0.0002186,LEO
48104,STARLINK-2439,2021,95.59,260.0,+,53.05,Active,1,LEO,USA,USA,Commercial,Communications,Falcon,1 48104U 21027N   23276.44796667  .00032614  00000+0  21985-2 0  9990,2 48104  53.0532 184.0918 0001624  97.9018 262.2155 15.06396404138750,15.06396404,0.0001624,LEO
48105,STARLINK-2440,2021,95.59,260.0,+,53.05,Active,1,LEO,USA,USA,Commercial,Communications,Falcon,1 48105U 21027P   23276.28901318  .00024703  00000+0  16711-2 0  9995,2 48105  53.0526 129.8042 0001439 100.5183 259.5968 15.06409001139498,15.06409001,0.0001439,LEO
48106,STARLINK-2442,2021,95.59,260.0,+,53.05,Active,1,LEO,USA,USA,Commercial,Communications,Falcon,1 48106U 21027Q   23276.47238958  .00036812  00000+0  24767-2 0  9994,2 48106  53.0534 178.9927 0001483 106.2093 253.9059 15.06410249138828,15.06410249,0.0001483,LEO
48107,STARLINK-2443,2021,95.59,260.0,+,53.05,Active,1,LEO,USA,USA,Commercial,Communications,Falcon,1 48107U 21027R   23276.22174330  .00037880  00000+0  25486-2 0  9996,2 48107  53.0529 180.1084 0001476 111.7816 248.3330 15.06395375138785,15.06395375,0.0001476,LEO
48108,STARLINK-2444,2021,95.59,260.0,+,53.05,Active,1,LEO,USA,USA,Commercial,Communications,Falcon,1 48108U 21027S   23276.46040765  .00027910  00000+0  18855-2 0  9992,2 48108  53.0541 189.0355 0001432  96.8875 263.2276 15.06393474138670,15.06393474,0.0001432,LEO
48109,STARLINK-2445,2021,95.6,260.0,+,53.05,Active,1,LEO,USA,USA,Commercial,Communications,Falcon,1 48109U 21027T   23276.07612811  .00129615  00000+0  85899-2 0  9994,2 48109  53.0538 200.7581 0001858  99.8715 260.2484 15.06279287138489,15.06279287,0.0001858,LEO
48110,STARLINK-2447,2021,95.59,260.0,+,53.05,Active,1,LEO,USA,USA,Commercial,Communications,Falcon,1 48110U 21027U   23276.18396261  .00034203  00000+0  23054-2 0  9999,2 48110  53.0539 190.2769 0001369 108.7465 251.3673 15.06376560138249,15.0637656,0.0001369,LEO
48111,STARLINK-2448,2021,95.59,260.0,+,53.05,Active,1,LEO,USA,USA,Commercial,Communications,Falcon,1 48111U 21027V   23276.04388221  .00023795  00000+0  16119-2 0  9990,2 48111  53.0532 190.8776 0001548 106.1312 253.9847 15.06378044138621,15.06378044,0.0001548,LEO
48112,STARLINK-2449,2021,95.59,260.0,+,53.05,Active,1,LEO,USA,USA,Commercial,Communications,Falcon,1 48112U 21027W   23276.50142899  .00029663  00000+0  20020-2 0  9997,2 48112  53.0541 204.0152 0001216  95.4500 264.6628 15.06399012138476,15.06399012,0.0001216,LEO
48113,STARLINK-2450,2021,95.59,260.0,+,53.05,Active,1,LEO,USA,USA,Commercial,Communications,Falcon,1 48113U 21027X   23276.50370876  .00018837  00000+0  12798-2 0  9990,2 48113  53.0528 198.8412 0001278 106.8846 253.2283 15.06408571138538,15.06408571,0.0001278,LEO
48114,STARLINK-2451,2021,91.33,260.0,+,53.05,Active,1,LEO,USA,USA,Commercial,Communications,Falcon,1 48114U 21027Y   23275.94559773  .00001282  00000+0  11830-4 0  9997,2 48114  53.0478 162.8898 0001460  48.7854 311.3291 15.76741062139008,15.76741062,0.000146,LEO
48115,STARLINK-2452,2021,95.59,260.0,+,53.05,Active,1,LEO,USA,USA,Commercial,Communications,Falcon,1 48115U 21027Z   23276.49358129  .00041703  00000+0  28015-2 0  9994,2 48115  53.0522 188.8975 0001302  98.1823 261.9314 15.06407419138286,15.06407419,0.0001302,LEO
48116,STARLINK-2454,2021,95.59,260.0,+,53.05,Active,1,LEO,USA,USA,Commercial,Communications,Falcon,1 48116U 21027AA  23276.50003303  .00037742  00000+0  25385-2 0  9993,2 48116  53.0535 198.8551 0001461 104.1970 255.9181 15.06409381138149,15.06409381,0.0001461,LEO
48117,STARLINK-2455,2021,95.59,260.0,+,53.05,Active,1,LEO,USA,USA,Commercial,Communications,Falcon,1 48117U 21027AB  23276.47144567  .00041227  00000+0  27702-2 0  9996,2 48117  53.0536 178.9759 0001528 126.1864 233.9266 15.06403935138824,15.06403935,0.0001528,LEO
48118,STARLINK-2458,2021,95.59,260.0,+,53.05,Active,1,LEO,USA,USA,Commercial,Communications,Falcon,1 48118U 21027AC  23276.15171467  .00028493  00000+0  19244-2 0  9993,2 48118  53.0535 180.4225 0001625  89.3778 270.7397 15.06393018138770,15.06393018,0.0001625,LEO
48119,STARLINK-2459,2021,95.59,260.0,+,53.05,Active,1,LEO,USA,USA,Commercial,Communications,Falcon,1 48119U 21027AD  23276.14707297  .00025903  00000+0  17521-2 0  9998,2 48119  53.0534 180.4348 0001442 102.6417 257.4733 15.06386870138765,15.0638687,0.0001442,LEO
